ONEWEB-0361             
1 49287U 21090J   23306.88604565  .00000074  00000+0  14945-3 0  9994
2 49287  87.9145 105.0250 0001710  93.4313 266.7016 13.20770026103933
ONEWEB-0362             
1 49288U 21090K   23306.61113597 -.00000021  00000+0 -83962-4 0  9996
2 49288  87.9176 135.5853 0001168  80.6315 279.4950 13.19725013101437
ONEWEB-0363             
1 49289U 21090L   23306.90287789  .00000027  00000+0  34435-4 0  9999
2 49289  87.9147 105.0185 0001999  95.3706 264.7655 13.20771166103944
ONEWEB-0364             
1 49290U 21090M   23307.16802507  .00000083  00000+0  17254-3 0  9992
2 49290  87.9158 104.9814 0001634  85.2961 274.8359 13.20770088105938
ONEWEB-0365             
1 49291U 21090N   23307.45459494  .00000027  00000+0  34301-4 0  9999
2 49291  87.9177 135.4067 0001444  82.7247 277.4050 13.19725518101521
ONEWEB-0366             
1 49292U 21090P   23307.48333463  .00000619  00000+0  16341-2 0  9999
2 49292  87.8928 120.1574 0002190  67.1031 293.0329 13.14532109103179
ONEWEB-0367             
1 49293U 21090Q   23306.90077198 -.00000026  00000+0 -96724-4 0  9995
2 49293  87.9145 105.0124 0001699  82.8128 277.3198 13.20771598103464
ONEWEB-0368             
1 49294U 21090R   23306.87342229  .00000063  00000+0  12361-3 0  9995
2 49294  87.9157 105.0402 0002368  76.2314 283.9082 13.20770000104615
